{
    "links": {
        "self": "http://www.neowsapp.com/rest/v1/neo/3709549?api_key=iIulBulltgU6a56xZRHN4H3l9WmuAYTsLGpBGhQ2"
    },
    "id": "3709549",
    "neo_reference_id": "3709549",
    "name": "(2015 BC515)",
    "designation": "2015 BC515",
    "nasa_jpl_url": "http://ssd.jpl.nasa.gov/sbdb.cgi?sstr=3709549",
    "absolute_magnitude_h": 23.9,
    "estimated_diameter": {
        "kilometers": {
            "estimated_diameter_min": 0.04411182,
            "estimated_diameter_max": 0.0986370281
        },
        "meters": {
            "estimated_diameter_min": 44.1118199997,
            "estimated_diameter_max": 98.6370281305
        },
        "miles": {
            "estimated_diameter_min": 0.0274098057,
            "estimated_diameter_max": 0.0612901888
        },
        "feet": {
            "estimated_diameter_min": 144.7238235278,
            "estimated_diameter_max": 323.6123073718
        }
    },
    "is_potentially_hazardous_asteroid": false,
    "close_approach_data": [
        {
            "close_approach_date": "2009-01-13",
            "close_approach_date_full": "2009-Jan-13 17:42",
            "epoch_date_close_approach": 1231868520000,
            "relative_velocity": {
                "kilometers_per_second": "5.7455775459",
                "kilometers_per_hour": "20684.0791651678",
                "miles_per_hour": "12852.2824123788"
            },
            "miss_distance": {
                "astronomical": "1.6199967242",
                "lunar": "630.1787257138",
                "kilometers": "242348059.347297454",
                "miles": "150588101.2153707052"
            },
            "orbiting_body": "Juptr"
        },
        {
            "close_approach_date": "2015-02-06",
            "close_approach_date_full": "2015-Feb-06 14:11",
            "epoch_date_close_approach": 1423231860000,
            "relative_velocity": {
                "kilometers_per_second": "5.955119741",
                "kilometers_per_hour": "21438.4310675402",
                "miles_per_hour": "13321.0073486057"
            },
            "miss_distance": {
                "astronomical": "0.1791407511",
                "lunar": "69.6857521779",
                "kilometers": "26799074.794760157",
                "miles": "16652172.9059458866"
            },
            "orbiting_body": "Earth"
        },
        {
            "close_approach_date": "2021-06-01",
            "close_approach_date_full": "2021-Jun-01 13:47",
            "epoch_date_close_approach": 1622555220000,
            "relative_velocity": {
                "kilometers_per_second": "4.5941617698",
                "kilometers_per_hour": "16538.9823713661",
                "miles_per_hour": "10276.6804629191"
            },
            "miss_distance": {
                "astronomical": "1.2325064875",
                "lunar": "479.4450236375",
                "kilometers": "184380345.291181625",
                "miles": "114568633.945791425"
            },
            "orbiting_body": "Juptr"
        },
        {
            "close_approach_date": "2032-02-05",
            "close_approach_date_full": "2032-Feb-05 23:38",
            "epoch_date_close_approach": 1959637080000,
            "relative_velocity": {
                "kilometers_per_second": "5.3884782896",
                "kilometers_per_hour": "19398.521842552",
                "miles_per_hour": "12053.4870860013"
            },
            "miss_distance": {
                "astronomical": "0.2159002068",
                "lunar": "83.9851804452",
                "kilometers": "32298211.069839516",
                "miles": "20069177.7386606808"
            },
            "orbiting_body": "Earth"
        }
    ],
    "orbital_data": {
        "orbit_id": "5",
        "orbit_determination_date": "2017-04-06 08:35:56",
        "first_observation_date": "2015-01-27",
        "last_observation_date": "2015-02-17",
        "data_arc_in_days": 21,
        "observations_used": 20,
        "orbit_uncertainty": "7",
        "minimum_orbit_intersection": ".180943",
        "jupiter_tisserand_invariant": "3.160",
        "epoch_osculation": "2459000.5",
        "eccentricity": ".5567707958430644",
        "semi_major_axis": "2.613410776838393",
        "inclination": "7.020107415907901",
        "ascending_node_longitude": "337.6403856418025",
        "orbital_period": "1543.156396455628",
        "perihelion_distance": "1.15833997875324",
        "perihelion_argument": "152.661823089225",
        "aphelion_distance": "4.068481574923547",
        "perihelion_time": "2458594.391741121693",
        "mean_anomaly": "94.74021786254801",
        "mean_motion": ".2332880846211439",
        "equinox": "J2000",
        "orbit_class": {
            "orbit_class_type": "AMO",
            "orbit_class_description": "Near-Earth asteroid orbits similar to that of 1221 Amor",
            "orbit_class_range": "1.017 AU < q (perihelion) < 1.3 AU"
        }
    },
    "is_sentry_object": false
}